2026-052D               
1 68201U 26052D   26077.86798194  .00005771  00000+0  35599-3 0  9999
2 68201  97.5387 154.0758 0010308 255.9624 104.0460 15.10274608   417
2026-052E               
1 68202U 26052E   26077.86797242  .00004976  00000+0  30748-3 0  9990
2 68202  97.5396 154.0769 0010199 260.3044  99.7034 15.10276826   415
2026-052F               
1 68203U 26052F   26077.86753346  .00005387  00000+0  33031-3 0  9993
2 68203  97.5381 154.0828 0009392 252.1876 107.8329 15.10529694   413
2026-052G               
1 68204U 26052G   26077.86744478  .00005556  00000+0  34008-3 0  9993
2 68204  97.5389 154.0769 0009035 255.6206 104.4021 15.10580087   410
KZ-11 R/B               
1 68205U 26052H   26077.87799881  .00022849  17269-5  34131-3 0  9995
2 68205  97.3435 154.1892 0549484   4.2931 356.2712 14.66605051   401
